     2.11           N: GPS NAV DATA                         RINEX VERSION / TYPE
teqc  2018Dec12     gpsops              20220228 01:04:03UTCPGM / RUN BY / DATE
Linux 2.6.32-573.12.1.x86_64|x86_64|gcc -static|Linux 64|=+ COMMENT
CHPI                                    MARKER NAME         COMMENT
41609M003                               MARKER NUMBER       COMMENT
4164613.9484 -4162456.9866 -2445028.7316                    COMMENT
                                                            COMMENT
This data is provided as a public service by NASA/JPL.      COMMENT
No warranty is expressed or implied regarding suitability   COMMENT
for use.  For further information, contact:                 COMMENT
Dave Stowers, NASA/JPL m/s 238-600                          COMMENT
4800 Oak Grove Drive, Pasadena CA 91109 USA                 COMMENT
                                                            END OF HEADER
17 22  2 27 18  0  0.0 5.807089619339D-04 5.002220859751D-12 0.000000000000D+00
    3.600000000000D+01 1.227500000000D+02 3.898376668750D-09 4.636122435166D-01
    6.400048732758D-06 1.356495218351D-02 9.551644325256D-06 5.153771215439D+03
    6.480000000000D+04-1.415610313416D-07 3.125200870098D+00-1.024454832077D-07
    9.800530599438D-01 2.094062500000D+02-1.495139800860D+00-8.025691445120D-09
   -6.143113028173D-11 1.000000000000D+00 2.199000000000D+03 0.000000000000D+00
    2.000000000000D+00 0.000000000000D+00-1.117587089539D-08 3.600000000000D+01
    6.457800000000D+04 4.000000000000D+00
21 22  2 27 20  0  0.0 1.587090082467D-04 5.684341886081D-13 0.000000000000D+00
    7.400000000000D+01 5.353125000000D+01 4.637336020802D-09 1.712715223887D+00
    2.531334757805D-06 2.458293852396D-02-1.117587089539D-07 5.153578887939D+03
    7.200000000000D+04 4.414469003677D-07-2.251619653591D+00 8.009374141693D-08
    9.594737977978D-01 3.678437500000D+02-9.965352386070D-01-8.203913154484D-09
   -1.271481533738D-10 1.000000000000D+00 2.199000000000D+03 0.000000000000D+00
    2.000000000000D+00 0.000000000000D+00-1.024454832077D-08 7.400000000000D+01
    6.481800000000D+04 4.000000000000D+00
 1 22  2 27 20  0  0.0 4.208972677588D-04-9.322320693173D-12 0.000000000000D+00
    3.100000000000D+01 2.556250000000D+01 4.273392289656D-09-6.492136842758D-01
    1.424923539162D-06 1.145353750326D-02 1.220032572746D-06 5.153665203094D+03
    7.200000000000D+04 3.725290298462D-08-2.160371915842D+00 1.564621925354D-07
    9.868728768165D-01 3.666875000000D+02 8.836339448206D-01-8.402492854697D-09
    1.321483616526D-11 1.000000000000D+00 2.199000000000D+03 0.000000000000D+00
    2.000000000000D+00 0.000000000000D+00 5.122274160385D-09 3.100000000000D+01
    6.481800000000D+04 4.000000000000D+00
31 22  2 27 20  0  0.0-1.666941680014D-04-1.705302565824D-12 0.000000000000D+00
    8.900000000000D+01 2.068750000000D+01 5.153071788981D-09-1.774230595574D+00
    7.525086402893D-07 1.045387238264D-02 5.351379513741D-06 5.153686136246D+03
    7.200000000000D+04 1.322478055954D-07 9.928945914165D-01-1.005828380585D-07
    9.550034624704D-01 2.697500000000D+02 3.793469727984D-01-8.271058808513D-09
    4.114457097939D-10 1.000000000000D+00 2.199000000000D+03 0.000000000000D+00
    2.800000000000D+00 0.000000000000D+00-1.350417733192D-08 8.900000000000D+01
    6.481800000000D+04 4.000000000000D+00
 4 22  2 27 20  0  0.0-1.869220286608D-04 2.387423592154D-12 0.000000000000D+00
    1.500000000000D+01-2.378125000000D+01 4.240890935844D-09 1.115045247665D+00
   -1.208856701851D-06 1.728353905492D-03 1.161172986031D-05 5.153651704788D+03
    7.200000000000D+04-7.636845111847D-08-4.381391809984D-02 1.043081283569D-07
    9.616248813190D-01 1.562500000000D+02-3.039565727279D+00-7.733536418548D-09
    5.682379551060D-10 1.000000000000D+00 2.199000000000D+03 0.000000000000D+00
    2.000000000000D+00 0.000000000000D+00-4.190951585770D-09 7.830000000000D+02
    6.481800000000D+04 4.000000000000D+00
22 22  2 27 20  0  0.0 2.200151793659D-04 5.798028723802D-12 0.000000000000D+00
    6.800000000000D+01-2.931250000000D+01 4.266249134972D-09 1.401742433730D+00
   -1.506879925728D-06 1.297971955501D-02 1.144222915173D-05 5.153667219162D+03
    7.200000000000D+04-3.017485141754D-07 4.483772229968D-03-2.142041921616D-07
    9.617651619966D-01 1.597812500000D+02-1.870678449723D+00-7.916401178456D-09
    5.582375385485D-10 1.000000000000D+00 2.199000000000D+03 0.000000000000D+00
    2.000000000000D+00 0.000000000000D+00-9.778887033463D-09 6.800000000000D+01
    6.481800000000D+04 4.000000000000D+00
 3 22  2 27 20  0  0.0-1.410744152963D-04-1.750777300913D-11 0.000000000000D+00
    3.300000000000D+01-1.354687500000D+02 4.099099315368D-09-1.797842381569D+00
   -7.018446922302D-06 3.896740963683D-03 6.457790732384D-06 5.153676092148D+03
    7.200000000000D+04 8.381903171539D-08-1.124972646323D+00-7.264316082001D-08
    9.725741677551D-01 2.615312500000D+02 9.544552149022D-01-7.929973172356D-09
   -2.725113511916D-10 1.000000000000D+00 2.199000000000D+03 0.000000000000D+00
    2.000000000000D+00 0.000000000000D+00 1.862645149231D-09 3.300000000000D+01
    6.481800000000D+04 4.000000000000D+00
 8 22  2 27 20  0  0.0-5.787098780274D-05-1.477928890381D-12 0.000000000000D+00
    9.300000000000D+01 1.148750000000D+02 4.259820295757D-09 1.601335606284D+00
    6.297603249550D-06 7.348105777055D-03 9.506940841675D-06 5.153732084274D+03
    7.200000000000D+04 2.980232238770D-08 3.043113262659D+00 1.415610313416D-07
    9.649084331322D-01 1.977500000000D+02 1.150813928248D-01-7.918901282596D-09
   -1.671498196038D-10 1.000000000000D+00 2.199000000000D+03 0.000000000000D+00
    2.800000000000D+00 0.000000000000D+00 5.122274160385D-09 9.300000000000D+01
    6.481800000000D+04 4.000000000000D+00
32 22  2 27 20  0  0.0-7.546506822109D-05-7.048583938740D-12 0.000000000000D+00
    7.000000000000D+01-3.918750000000D+01 4.200174954146D-09 2.194378103445D+00
   -1.903623342514D-06 5.689853685908D-03 1.151300966740D-05 5.153579038620D+03
    7.200000000000D+04-7.264316082001D-08-8.559373345971D-02-1.788139343262D-07
    9.584733461592D-01 1.549687500000D+02-2.333456616349D+00-7.735679364953D-09
    5.425225982439D-10 1.000000000000D+00 2.199000000000D+03 0.000000000000D+00
    2.000000000000D+00 0.000000000000D+00 4.656612873077D-10 7.000000000000D+01
    6.481800000000D+04 4.000000000000D+00
26 22  2 27 20  0  0.0 1.867953687906D-04 3.183231456205D-12 0.000000000000D+00
    7.400000000000D+01-1.284375000000D+01 5.240218276125D-09-2.882601409702D+00
   -7.282942533493D-07 6.908563664183D-03 8.620321750641D-06 5.153705703735D+03
    7.200000000000D+04-1.396983861923D-07 1.963804403124D+00-8.568167686462D-08
    9.381737778579D-01 2.032500000000D+02 3.740828990829D-01-8.204270312218D-09
   -5.682379551060D-10 1.000000000000D+00 2.199000000000D+03 0.000000000000D+00
    2.000000000000D+00 0.000000000000D+00 6.984919309616D-09 7.400000000000D+01
    6.481800000000D+04 4.000000000000D+00
27 22  2 27 20  0  0.0 1.363479532301D-04 1.443822839065D-11 0.000000000000D+00
    7.400000000000D+01 1.044687500000D+02 4.037311027353D-09 1.570549190192D+00
    5.589798092842D-06 1.030871714465D-02 1.004524528980D-05 5.153660696030D+03
    7.200000000000D+04-1.806765794754D-07 3.062628468415D+00 1.620501279831D-07
    9.736188200004D-01 1.951562500000D+02 6.435492406033D-01-7.886757086518D-09
   -1.153619481453D-10 1.000000000000D+00 2.199000000000D+03 0.000000000000D+00
    2.800000000000D+00 0.000000000000D+00 1.396983861923D-09 7.400000000000D+01
    6.481800000000D+04 4.000000000000D+00
17 22  2 27 20  0  0.0 5.807452835143D-04 5.002220859751D-12 0.000000000000D+00
    3.700000000000D+01 1.276562500000D+02 3.869446892280D-09 1.513742264230D+00
    6.286427378654D-06 1.356448256411D-02 9.115785360336D-06 5.153770450592D+03
    7.200000000000D+04 8.009374141693D-08 3.125143174072D+00-3.650784492493D-07
    9.800540869123D-01 2.115625000000D+02-1.495151989893D+00-7.734250734016D-09
    1.785788670980D-11 1.000000000000D+00 2.199000000000D+03 0.000000000000D+00
    2.000000000000D+00 0.000000000000D+00-1.117587089539D-08 3.700000000000D+01
    6.481800000000D+04 4.000000000000D+00
 9 22  2 27 20  0  0.0-3.522406332195D-04 1.818989403546D-12 0.000000000000D+00
    1.800000000000D+01-3.756250000000D+01 4.340895101419D-09 1.977399409091D+00
   -1.903623342514D-06 2.214754698798D-03 1.171790063381D-05 5.153616415024D+03
    7.200000000000D+04 3.166496753693D-08-9.684649786251D-02 8.754432201385D-08
    9.546237650087D-01 1.494062500000D+02 1.879410672107D+00-7.768180718765D-09
    5.778812139293D-10 1.000000000000D+00 2.199000000000D+03 0.000000000000D+00
    2.000000000000D+00 0.000000000000D+00 1.396983861923D-09 1.800000000000D+01
    6.481800000000D+04 4.000000000000D+00
10 22  2 27 20  0  0.0-3.324928693473D-04-1.091393642128D-11 0.000000000000D+00
    1.030000000000D+02-1.334687500000D+02 4.018738825174D-09-2.687049658061D+00
   -6.977468729019D-06 7.539819460362D-03 5.999580025673D-06 5.153685686111D+03
    7.200000000000D+04-2.235174179077D-08-1.127759073704D+00-7.078051567078D-08
    9.723966996999D-01 2.707500000000D+02-2.507504348512D+00-7.862827518327D-09
   -1.510777215649D-10 1.000000000000D+00 2.199000000000D+03 0.000000000000D+00
    2.800000000000D+00 0.000000000000D+00 2.328306436539D-09 1.030000000000D+02
    6.493800000000D+04 4.000000000000D+00
16 22  2 27 20  0  0.0-4.747910425067D-04-4.661160346586D-12 0.000000000000D+00
    8.600000000000D+01-3.437500000000D-01 4.358752988129D-09 2.462914437221D+00
   -1.452863216400D-07 1.278423960321D-02 9.536743164062D-06 5.153612077713D+03
    7.200000000000D+04-1.266598701477D-07 2.106553026389D+00-1.601874828339D-07
    9.699123985503D-01 2.017812500000D+02 7.111239238858D-01-7.662104871709D-09
   -5.860958418158D-10 1.000000000000D+00 2.199000000000D+03 0.000000000000D+00
    2.000000000000D+00 0.000000000000D+00-1.024454832077D-08 8.600000000000D+01
    6.502800000000D+04 4.000000000000D+00
